{
  "type": "FeatureCollection",
  "features": [
    {
      "type": "Feature",
      "properties": {
        "norad_id": 66982,
        "name": "STARLINK-36113",
        "group": "last-30-days",
        "lat": 8.210623706350978,
        "lon": 96.97607108452836,
        "alt_km": 376.0562699017473,
        "timestamp": "2025-12-25T16:53:13.374611+00:00",
        "meta_object_name": "STARLINK-36113",
        "meta_object_id": "2025-288Z",
        "meta_epoch": "2025-12-25T06:00:04.000320",
        "meta_mean_motion": 15.65582543,
        "meta_eccentricity": 0.00015229,
        "meta_inclination": 43.0002,
        "meta_ra_of_asc_node": 90.7782,
        "meta_arg_of_pericenter": 268.0112,
        "meta_mean_anomaly": 66.2477,
        "meta_ephemeris_type": 0,
        "meta_classification_type": "U",
        "meta_norad_cat_id": 66982,
        "meta_element_set_no": 999,
        "meta_rev_at_epoch": 384,
        "meta_bstar": -0.021856422,
        "meta_mean_motion_dot": -0.01989923,
        "meta_mean_motion_ddot": 0,
        "tle_line1": "1 66982U 25288Z   25359.25004630 -.01989923  00000+0 -21856-1 0  9995",
        "tle_line2": "2 66982  43.0002  90.7782 0001522 268.0112  66.2477 15.65582543  3846"
      },
      "geometry": {
        "type": "Point",
        "coordinates": [
          96.97607108452836,
          8.210623706350978
        ]
      }
    },
    {
      "type": "Feature",
      "properties": {
        "norad_id": 66983,
        "name": "STARLINK-36145",
        "group": "last-30-days",
        "lat": 10.782801019414341,
        "lon": 99.85201224864845,
        "alt_km": 375.67410352315164,
        "timestamp": "2025-12-25T16:53:13.374621+00:00",
        "meta_object_name": "STARLINK-36145",
        "meta_object_id": "2025-288AA",
        "meta_epoch": "2025-12-25T06:00:04.000320",
        "meta_mean_motion": 15.65576473,
        "meta_eccentricity": 0.00015614,
        "meta_inclination": 43.0004,
        "meta_ra_of_asc_node": 90.7689,
        "meta_arg_of_pericenter": 271.2553,
        "meta_mean_anomaly": 66.8391,
        "meta_ephemeris_type": 0,
        "meta_classification_type": "U",
        "meta_norad_cat_id": 66983,
        "meta_element_set_no": 999,
        "meta_rev_at_epoch": 384,
        "meta_bstar": -0.021751524,
        "meta_mean_motion_dot": -0.01981123,
        "meta_mean_motion_ddot": 0,
        "tle_line1": "1 66983U 25288AA  25359.25004630 -.01981123  00000+0 -21752-1 0  9995",
        "tle_line2": "2 66983  43.0004  90.7689 0001561 271.2553  66.8391 15.65576473  3849"
      },
      "geometry": {
        "type": "Point",
        "coordinates": [
          99.85201224864845,
          10.782801019414341
        ]
      }
    },
    {
      "type": "Feature",
      "properties": {
        "norad_id": 66984,
        "name": "STARLINK-35591",
        "group": "last-30-days",
        "lat": 9.500139018505706,
        "lon": 98.40863984863638,
        "alt_km": 375.9203111888555,
        "timestamp": "2025-12-25T16:53:13.374631+00:00",
        "meta_object_name": "STARLINK-35591",
        "meta_object_id": "2025-288AB",
        "meta_epoch": "2025-12-25T06:00:04.000320",
        "meta_mean_motion": 15.65579414,
        "meta_eccentricity": 0.00015949,
        "meta_inclination": 43.0005,
        "meta_ra_of_asc_node": 90.7731,
        "meta_arg_of_pericenter": 267.8459,
        "meta_mean_anomaly": 68.3306,
        "meta_ephemeris_type": 0,
        "meta_classification_type": "U",
        "meta_norad_cat_id": 66984,
        "meta_element_set_no": 999,
        "meta_rev_at_epoch": 384,
        "meta_bstar": -0.021795633,
        "meta_mean_motion_dot": -0.01984891,
        "meta_mean_motion_ddot": 0,
        "tle_line1": "1 66984U 25288AB  25359.25004630 -.01984891  00000+0 -21796-1 0  9999",
        "tle_line2": "2 66984  43.0005  90.7731 0001594 267.8459  68.3306 15.65579414  3842"
      },
      "geometry": {
        "type": "Point",
        "coordinates": [
          98.40863984863638,
          9.500139018505706
        ]
      }
    },
    {
      "type": "Feature",
      "properties": {
        "norad_id": 66985,
        "name": "STARLINK-36103",
        "group": "last-30-days",
        "lat": 12.059669798199744,
        "lon": 101.30785386314085,
        "alt_km": 375.5348355050819,
        "timestamp": "2025-12-25T16:53:13.374643+00:00",
        "meta_object_name": "STARLINK-36103",
        "meta_object_id": "2025-288AC",
        "meta_epoch": "2025-12-25T06:00:04.000320",
        "meta_mean_motion": 15.65572781,
        "meta_eccentricity": 0.00016005,
        "meta_inclination": 43.0004,
        "meta_ra_of_asc_node": 90.7637,
        "meta_arg_of_pericenter": 271.1002,
        "meta_mean_anomaly": 68.9138,
        "meta_ephemeris_type": 0,
        "meta_classification_type": "U",
        "meta_norad_cat_id": 66985,
        "meta_element_set_no": 999,
        "meta_rev_at_epoch": 384,
        "meta_bstar": -0.021703046,
        "meta_mean_motion_dot": -0.01977008,
        "meta_mean_motion_ddot": 0,
        "tle_line1": "1 66985U 25288AC  25359.25004630 -.01977008  00000+0 -21703-1 0  9990",
        "tle_line2": "2 66985  43.0004  90.7637 0001600 271.1002  68.9138 15.65572781  3846"
      },
      "geometry": {
        "type": "Point",
        "coordinates": [
          101.30785386314085,
          12.059669798199744
        ]
      }
    },
    {
      "type": "Feature",
      "properties": {
        "norad_id": 66986,
        "name": "STARLINK-36135",
        "group": "last-30-days",
        "lat": 13.32801844061564,
        "lon": 102.77659923644427,
        "alt_km": 375.38420618285,
        "timestamp": "2025-12-25T16:53:13.374653+00:00",
        "meta_object_name": "STARLINK-36135",
        "meta_object_id": "2025-288AD",
        "meta_epoch": "2025-12-25T06:00:04.000320",
        "meta_mean_motion": 15.6557426,
        "meta_eccentricity": 0.00015641,
        "meta_inclination": 43.0003,
        "meta_ra_of_asc_node": 90.7584,
        "meta_arg_of_pericenter": 271.1595,
        "meta_mean_anomaly": 70.7721,
        "meta_ephemeris_type": 0,
        "meta_classification_type": "U",
        "meta_norad_cat_id": 66986,
        "meta_element_set_no": 999,
        "meta_rev_at_epoch": 384,
        "meta_bstar": -0.021744626,
        "meta_mean_motion_dot": -0.01980416,
        "meta_mean_motion_ddot": 0,
        "tle_line1": "1 66986U 25288AD  25359.25004630 -.01980416  00000+0 -21745-1 0  9994",
        "tle_line2": "2 66986  43.0003  90.7584 0001564 271.1595  70.7721 15.65574260  3846"
      },
      "geometry": {
        "type": "Point",
        "coordinates": [
          102.77659923644427,
          13.32801844061564
        ]
      }
    },
    {
      "type": "Feature",
      "properties": {
        "norad_id": 66987,
        "name": "STARLINK-36147",
        "group": "last-30-days",
        "lat": 14.58699733719334,
        "lon": 104.26112286336596,
        "alt_km": 375.17974049817167,
        "timestamp": "2025-12-25T16:53:13.374663+00:00",
        "meta_object_name": "STARLINK-36147",
        "meta_object_id": "2025-288AE",
        "meta_epoch": "2025-12-25T06:00:04.000320",
        "meta_mean_motion": 15.65581742,
        "meta_eccentricity": 0.0001455,
        "meta_inclination": 43,
        "meta_ra_of_asc_node": 90.7542,
        "meta_arg_of_pericenter": 272.879,
        "meta_mean_anomaly": 70.9668,
        "meta_ephemeris_type": 0,
        "meta_classification_type": "U",
        "meta_norad_cat_id": 66987,
        "meta_element_set_no": 999,
        "meta_rev_at_epoch": 384,
        "meta_bstar": -0.021878314,
        "meta_mean_motion_dot": -0.01991565,
        "meta_mean_motion_ddot": 0,
        "tle_line1": "1 66987U 25288AE  25359.25004630 -.01991565  00000+0 -21878-1 0  9999",
        "tle_line2": "2 66987  43.0000  90.7542 0001455 272.8790  70.9668 15.65581742  3847"
      },
      "geometry": {
        "type": "Point",
        "coordinates": [
          104.26112286336596,
          14.58699733719334
        ]
      }
    },
    {
      "type": "Feature",
      "properties": {
        "norad_id": 66988,
        "name": "YAOGAN-47",
        "group": "last-30-days",
        "lat": 61.10579538445227,
        "lon": -101.28239098423099,
        "alt_km": 489.75784153509267,
        "timestamp": "2025-12-25T16:53:13.374673+00:00",
        "meta_object_name": "YAOGAN-47",
        "meta_object_id": "2025-289A",
        "meta_epoch": "2025-12-20T02:21:43.539840",
        "meta_mean_motion": 15.23243112,
        "meta_eccentricity": 6.467e-05,
        "meta_inclination": 97.5265,
        "meta_ra_of_asc_node": 59.2376,
        "meta_arg_of_pericenter": 91.4531,
        "meta_mean_anomaly": 268.678,
        "meta_ephemeris_type": 0,
        "meta_classification_type": "U",
        "meta_norad_cat_id": 66988,
        "meta_element_set_no": 999,
        "meta_rev_at_epoch": 166,
        "meta_bstar": 0.00010945697,
        "meta_mean_motion_dot": 2.52e-05,
        "meta_mean_motion_ddot": 0,
        "tle_line1": "1 66988U 25289A   25354.09842060  .00002520  00000+0  10946-3 0  9992",
        "tle_line2": "2 66988  97.5265  59.2376 0000646  91.4531 268.6780 15.23243112  1668"
      },
      "geometry": {
        "type": "Point",
        "coordinates": [
          -101.28239098423099,
          61.10579538445227
        ]
      }
    }
  ]
}